EUTELSAT 8 WEST B       
1 40875U 15039B   25330.29469363 -.00000046  00000+0  00000+0 0  9996
2 40875   0.0675   5.2344 0004194 244.1935 274.1542  1.00271551 37623
EUTELSAT 9B             
1 41310U 16005A   25330.36940076  .00000081  00000+0  00000+0 0  9996
2 41310   0.0485  68.3379 0004397 189.5787 309.6397  1.00271691 36083
EUTELSAT 65 WEST A      
1 41382U 16014A   25330.46225403 -.00000257  00000+0  00000+0 0  9992
2 41382   0.0614  28.4600 0002621 225.6746 272.7159  1.00268762 35502
EUTELSAT 117 WEST B     
1 41589U 16038B   25330.38169883  .00000008  00000+0  00000+0 0  9990
2 41589   0.0111 143.5567 0000420 160.1740 142.2462  1.00270007 34621
EUTELSAT 172B           
1 42741U 17029B   25330.54410399  .00000013  00000+0  00000+0 0  9997
2 42741   0.0342 153.1000 0000221 311.4300 329.0970  1.00269748 31692
EUTELSAT 7C             
1 44334U 19034B   25330.29764030  .00000068  00000+0  00000+0 0  9991
2 44334   0.0769 185.5734 0003239  34.8906 319.2076  1.00270053  4800
EUTELSAT 5 WEST B       
1 44624U 19067A   25330.29530030 -.00000023  00000+0  00000+0 0  9992
2 44624   0.0654 338.8198 0003220 265.0618 282.9278  1.00271369 22407
EUTELSAT KONNECT        
1 45027U 20005B   25330.08357684  .00000069  00000+0  00000+0 0  9992
2 45027   0.0673  99.8219 0001391 197.5930 165.1507  1.00270244 22292
